CCSDS_OMM_VERS = 2.0
CREATION_DATE  = 
ORIGINATOR     = 

OBJECT_NAME    = STARLINK-36909
OBJECT_ID      = 2026-037Q
CENTER_NAME    = EARTH
REF_FRAME      = TEME
TIME_SYSTEM    = UTC
MEAN_ELEMENT_THEORY = SGP/SGP4

EPOCH          = 2026-03-10T12:00:01.999296
MEAN_MOTION    = 15.82021752
ECCENTRICITY   = .000146
INCLINATION    = 42.9983
RA_OF_ASC_NODE = 193.4634
ARG_OF_PERICENTER = 270.4967
MEAN_ANOMALY   = 1.6106

EPHEMERIS_TYPE = 0
CLASSIFICATION_TYPE = U
NORAD_CAT_ID   = 67946
ELEMENT_SET_NO = 999
REV_AT_EPOCH   = 332
BSTAR          = -.66019E-4
MEAN_MOTION_DOT = -.14415E-3
MEAN_MOTION_DDOT = 0

CCSDS_OMM_VERS = 2.0
CREATION_DATE  = 
ORIGINATOR     = 

OBJECT_NAME    = STARLINK-36920
OBJECT_ID      = 2026-037R
CENTER_NAME    = EARTH
REF_FRAME      = TEME
TIME_SYSTEM    = UTC
MEAN_ELEMENT_THEORY = SGP/SGP4

EPOCH          = 2026-03-10T12:00:01.999296
MEAN_MOTION    = 15.82025053
ECCENTRICITY   = .0001396
INCLINATION    = 42.9984
RA_OF_ASC_NODE = 193.4517
ARG_OF_PERICENTER = 265.5254
MEAN_ANOMALY   = 10.8579

EPHEMERIS_TYPE = 0
CLASSIFICATION_TYPE = U
NORAD_CAT_ID   = 67947
ELEMENT_SET_NO = 999
REV_AT_EPOCH   = 332
BSTAR          = -.10532E-3
MEAN_MOTION_DOT = -.22661E-3
MEAN_MOTION_DDOT = 0

CCSDS_OMM_VERS = 2.0
CREATION_DATE  = 
ORIGINATOR     = 

OBJECT_NAME    = STARLINK-36873
OBJECT_ID      = 2026-037S
CENTER_NAME    = EARTH
REF_FRAME      = TEME
TIME_SYSTEM    = UTC
MEAN_ELEMENT_THEORY = SGP/SGP4

EPOCH          = 2026-03-10T12:00:01.999296
MEAN_MOTION    = 15.82044136
ECCENTRICITY   = .0001405
INCLINATION    = 42.9984
RA_OF_ASC_NODE = 193.4414
ARG_OF_PERICENTER = 279.6417
MEAN_ANOMALY   = 1.1079

EPHEMERIS_TYPE = 0
CLASSIFICATION_TYPE = U
NORAD_CAT_ID   = 67948
ELEMENT_SET_NO = 999
REV_AT_EPOCH   = 332
BSTAR          = -.82218E-3
MEAN_MOTION_DOT = -.170514E-2
MEAN_MOTION_DDOT = 0

CCSDS_OMM_VERS = 2.0
CREATION_DATE  = 
ORIGINATOR     = 

OBJECT_NAME    = STARLINK-36863
OBJECT_ID      = 2026-037T
CENTER_NAME    = EARTH
REF_FRAME      = TEME
TIME_SYSTEM    = UTC
MEAN_ELEMENT_THEORY = SGP/SGP4

EPOCH          = 2026-03-10T12:00:01.999296
MEAN_MOTION    = 15.82024418
ECCENTRICITY   = .0001532
INCLINATION    = 42.9985
RA_OF_ASC_NODE = 193.4310
ARG_OF_PERICENTER = 265.5508
MEAN_ANOMALY   = 19.3759

EPHEMERIS_TYPE = 0
CLASSIFICATION_TYPE = U
NORAD_CAT_ID   = 67949
ELEMENT_SET_NO = 999
REV_AT_EPOCH   = 332
BSTAR          = -.1275E-3
MEAN_MOTION_DOT = -.27305E-3
MEAN_MOTION_DDOT = 0

CCSDS_OMM_VERS = 2.0
CREATION_DATE  = 
ORIGINATOR     = 

OBJECT_NAME    = STARLINK-36887
OBJECT_ID      = 2026-037U
CENTER_NAME    = EARTH
REF_FRAME      = TEME
TIME_SYSTEM    = UTC
MEAN_ELEMENT_THEORY = SGP/SGP4

EPOCH          = 2026-03-10T12:00:01.999296
MEAN_MOTION    = 15.82027391
ECCENTRICITY   = .0001311
INCLINATION    = 42.9985
RA_OF_ASC_NODE = 193.4201
ARG_OF_PERICENTER = 268.4358
MEAN_ANOMALY   = 20.7562

EPHEMERIS_TYPE = 0
CLASSIFICATION_TYPE = U
NORAD_CAT_ID   = 67950
ELEMENT_SET_NO = 999
REV_AT_EPOCH   = 332
BSTAR          = .65597E-5
MEAN_MOTION_DOT = .849E-5
MEAN_MOTION_DDOT = 0

CCSDS_OMM_VERS = 2.0
CREATION_DATE  = 
ORIGINATOR     = 

OBJECT_NAME    = STARLINK-36897
OBJECT_ID      = 2026-037V
CENTER_NAME    = EARTH
REF_FRAME      = TEME
TIME_SYSTEM    = UTC
MEAN_ELEMENT_THEORY = SGP/SGP4

EPOCH          = 2026-03-10T12:00:01.999296
MEAN_MOTION    = 15.81995792
ECCENTRICITY   = .0001504
INCLINATION    = 42.9985
RA_OF_ASC_NODE = 193.4097
ARG_OF_PERICENTER = 274.4866
MEAN_ANOMALY   = 18.9933

EPHEMERIS_TYPE = 0
CLASSIFICATION_TYPE = U
NORAD_CAT_ID   = 67951
ELEMENT_SET_NO = 999
REV_AT_EPOCH   = 332
BSTAR          = .23232E-3
MEAN_MOTION_DOT = .48613E-3
MEAN_MOTION_DDOT = 0

CCSDS_OMM_VERS = 2.0
CREATION_DATE  = 
ORIGINATOR     = 

OBJECT_NAME    = STARLINK-36381
OBJECT_ID      = 2026-037W
CENTER_NAME    = EARTH
REF_FRAME      = TEME
TIME_SYSTEM    = UTC
MEAN_ELEMENT_THEORY = SGP/SGP4

EPOCH          = 2026-03-10T12:00:01.999296
MEAN_MOTION    = 15.82024635
ECCENTRICITY   = .0001497
INCLINATION    = 42.9984
RA_OF_ASC_NODE = 193.3873
ARG_OF_PERICENTER = 258.5231
MEAN_ANOMALY   = 43.4976

EPHEMERIS_TYPE = 0
CLASSIFICATION_TYPE = U
NORAD_CAT_ID   = 67952
ELEMENT_SET_NO = 999
REV_AT_EPOCH   = 332
BSTAR          = -.11486E-3
MEAN_MOTION_DOT = -.2466E-3
MEAN_MOTION_DDOT = 0

CCSDS_OMM_VERS = 2.0
CREATION_DATE  = 
ORIGINATOR     = 

OBJECT_NAME    = STARLINK-36824
OBJECT_ID      = 2026-037X
CENTER_NAME    = EARTH
REF_FRAME      = TEME
TIME_SYSTEM    = UTC
MEAN_ELEMENT_THEORY = SGP/SGP4

EPOCH          = 2026-03-10T12:00:01.999296
MEAN_MOTION    = 15.82032937
ECCENTRICITY   = .0001426
INCLINATION    = 42.9986
RA_OF_ASC_NODE = 193.3978
ARG_OF_PERICENTER = 275.1601
MEAN_ANOMALY   = 22.5772

EPHEMERIS_TYPE = 0
CLASSIFICATION_TYPE = U
NORAD_CAT_ID   = 67953
ELEMENT_SET_NO = 999
REV_AT_EPOCH   = 332
BSTAR          = -.20516E-3
MEAN_MOTION_DOT = -.43549E-3
MEAN_MOTION_DDOT = 0

CCSDS_OMM_VERS = 2.0
CREATION_DATE  = 
ORIGINATOR     = 

OBJECT_NAME    = STARLINK-36869
OBJECT_ID      = 2026-037Y
CENTER_NAME    = EARTH
REF_FRAME      = TEME
TIME_SYSTEM    = UTC
MEAN_ELEMENT_THEORY = SGP/SGP4

EPOCH          = 2026-03-10T12:00:01.999296
MEAN_MOTION    = 15.82047188
ECCENTRICITY   = .0001573
INCLINATION    = 42.9985
RA_OF_ASC_NODE = 193.3764
ARG_OF_PERICENTER = 277.6293
MEAN_ANOMALY   = 28.6560

EPHEMERIS_TYPE = 0
CLASSIFICATION_TYPE = U
NORAD_CAT_ID   = 67954
ELEMENT_SET_NO = 999
REV_AT_EPOCH   = 332
BSTAR          = -.22991E-3
MEAN_MOTION_DOT = -.48744E-3
MEAN_MOTION_DDOT = 0

CCSDS_OMM_VERS = 2.0
CREATION_DATE  = 
ORIGINATOR     = 

OBJECT_NAME    = STARLINK-36872
OBJECT_ID      = 2026-037Z
CENTER_NAME    = EARTH
REF_FRAME      = TEME
TIME_SYSTEM    = UTC
MEAN_ELEMENT_THEORY = SGP/SGP4

EPOCH          = 2026-03-10T12:00:01.999296
MEAN_MOTION    = 15.82056715
ECCENTRICITY   = .0001467
INCLINATION    = 42.9985
RA_OF_ASC_NODE = 193.3543
ARG_OF_PERICENTER = 262.8555
MEAN_ANOMALY   = 51.9465

EPHEMERIS_TYPE = 0
CLASSIFICATION_TYPE = U
NORAD_CAT_ID   = 67955
ELEMENT_SET_NO = 999
REV_AT_EPOCH   = 332
BSTAR          = -.27173E-3
MEAN_MOTION_DOT = -.5748E-3
MEAN_MOTION_DDOT = 0

CCSDS_OMM_VERS = 2.0
CREATION_DATE  = 
ORIGINATOR     = 

OBJECT_NAME    = STARLINK-36918
OBJECT_ID      = 2026-037AA
CENTER_NAME    = EARTH
REF_FRAME      = TEME
TIME_SYSTEM    = UTC
MEAN_ELEMENT_THEORY = SGP/SGP4

EPOCH          = 2026-03-10T12:00:01.999296
MEAN_MOTION    = 15.82080374
ECCENTRICITY   = .0001602
INCLINATION    = 42.9985
RA_OF_ASC_NODE = 193.3436
ARG_OF_PERICENTER = 268.1277
MEAN_ANOMALY   = 50.9568

EPHEMERIS_TYPE = 0
CLASSIFICATION_TYPE = U
NORAD_CAT_ID   = 67956
ELEMENT_SET_NO = 999
REV_AT_EPOCH   = 332
BSTAR          = -.58245E-3
MEAN_MOTION_DOT = -.121836E-2
MEAN_MOTION_DDOT = 0

CCSDS_OMM_VERS = 2.0
CREATION_DATE  = 
ORIGINATOR     = 

OBJECT_NAME    = STARLINK-36829
OBJECT_ID      = 2026-037AB
CENTER_NAME    = EARTH
REF_FRAME      = TEME
TIME_SYSTEM    = UTC
MEAN_ELEMENT_THEORY = SGP/SGP4

EPOCH          = 2026-03-10T12:00:01.999296
MEAN_MOTION    = 15.82055311
ECCENTRICITY   = .0001469
INCLINATION    = 42.9986
RA_OF_ASC_NODE = 193.3656
ARG_OF_PERICENTER = 263.4432
MEAN_ANOMALY   = 47.1102

EPHEMERIS_TYPE = 0
CLASSIFICATION_TYPE = U
NORAD_CAT_ID   = 67957
ELEMENT_SET_NO = 999
REV_AT_EPOCH   = 332
BSTAR          = -.36945E-3
MEAN_MOTION_DOT = -.77772E-3
MEAN_MOTION_DDOT = 0

